     2.100          NAVIGATION                              RINEX VERSION / TYPE
fic2rin                                 03/13/2011 00:15:11 PGM / RUN BY / DATE
                                                            END OF HEADER
 5 11  3 12 19 59 44.0 -.128027051687D-03 -.591171556152D-11  .000000000000D+00
     .700000000000D+01  .650312500000D+02  .469090968093D-08 -.223510714864D+01
     .318326056004D-05  .225680682342D-02  .859610736370D-05  .515363242340D+04
     .590384000000D+06  .186264514923D-07  .155343819960D+01 -.968575477600D-07
     .954720915935D+00  .212031250000D+03  .286903755950D+00 -.804390648956D-08
    -.151792037033D-09  .100000000000D+01  .162600000000D+04  .000000000000D+00
     .240000000000D+01  .000000000000D+00 -.977888703346D-08  .700000000000D+01
     .588786000000D+06  .400000000000D+01
29 11  3 12 19 59 44.0  .191882252693D-03  .272848410532D-11  .000000000000D+00
     .900000000000D+01 -.232500000000D+02  .459411993496D-08  .738454318901D-01
    -.114366412163D-05  .267683411948D-02  .802613794804D-05  .515355674934D+04
     .590384000000D+06 -.298023223877D-07 -.501738413659D+00 -.484287738800D-07
     .961579623022D+00  .226687500000D+03 -.125535317644D+01 -.798997567170D-08
     .242867259253D-09  .100000000000D+01  .162600000000D+04  .000000000000D+00
     .240000000000D+01  .000000000000D+00 -.884756445885D-08  .900000000000D+01
     .588936000000D+06  .400000000000D+01
 2 11  3 12 21 59 44.0  .324842054397D-03  .193267624127D-11  .000000000000D+00
     .170000000000D+02  .231250000000D+01  .497306429095D-08 -.292079050727D+01
     .236555933952D-06  .100928316824D-01  .819936394691D-05  .515372336769D+04
     .597584000000D+06 -.182539224625D-06  .491880802044D+00 -.298023223877D-07
     .939498204408D+00  .209687500000D+03 -.305824456521D+01 -.805640701026D-08
    -.746459664470D-10  .100000000000D+01  .162600000000D+04  .000000000000D+00
     .240000000000D+01  .000000000000D+00 -.172294676304D-07  .170000000000D+02
     .590406000000D+06  .400000000000D+01
 5 11  3 12 21 59 44.0 -.128068961203D-03 -.591171556152D-11  .000000000000D+00
     .800000000000D+01  .583125000000D+02  .463412160119D-08 -.118498671442D+01
     .295229256153D-05  .225734722335D-02  .813789665699D-05  .515363191223D+04
     .597584000000D+06  .372529029846D-07  .155338002520D+01 -.260770320892D-07
     .954720063054D+00  .216031250000D+03  .286991468129D+00 -.804926385558D-08
    -.103575742917D-09  .100000000000D+01  .162600000000D+04  .000000000000D+00
     .240000000000D+01  .000000000000D+00 -.977888703346D-08  .800000000000D+01
     .590406000000D+06  .400000000000D+01
 9 11  3 12 21 59 44.0  .672112219036D-04  .238742359215D-11  .000000000000D+00
     .710000000000D+02 -.369375000000D+02  .421446126351D-08  .101931799624D+01
    -.215321779251D-05  .170801852364D-01  .521726906300D-05  .515367790031D+04
     .597584000000D+06 -.327825546265D-06 -.265464799169D+01 -.165775418282D-06
     .983191661445D+00  .294843750000D+03  .155737999725D+01 -.828748806429D-08
    -.107147320259D-09  .100000000000D+01  .162600000000D+04  .000000000000D+00
     .240000000000D+01  .000000000000D+00 -.558793544769D-08  .710000000000D+02
     .590406000000D+06  .400000000000D+01
16 11  3 12 21 59 44.0 -.157188624144D-03 -.284217094304D-11  .000000000000D+00
     .100000000000D+01 -.753750000000D+02  .403231081907D-08 -.630251022679D+00
    -.393018126488D-05  .627080176491D-02  .814162194729D-05  .515376781845D+04
     .597584000000D+06  .949949026108D-07 -.155319157794D+01 -.117346644402D-06
     .975032854672D+00  .231250000000D+03 -.158975214047D+00 -.785425573271D-08
     .867893294096D-10  .100000000000D+01  .162600000000D+04  .000000000000D+00
     .240000000000D+01  .000000000000D+00 -.977888703346D-08  .100000000000D+01
     .590406000000D+06  .400000000000D+01
29 11  3 12 21 59 44.0  .191901810467D-03  .272848410532D-11  .000000000000D+00
     .100000000000D+02 -.229375000000D+02  .464162191361D-08  .112412884688D+01
    -.125914812088D-05  .267680524848D-02  .802800059319D-05  .515355661964D+04
     .597584000000D+06  .186264514923D-07 -.501795919506D+00 -.298023223877D-07
     .961581188345D+00  .225812500000D+03 -.125538356564D+01 -.801069082028D-08
     .218937691062D-09  .100000000000D+01  .162600000000D+04  .000000000000D+00
     .240000000000D+01  .000000000000D+00 -.884756445885D-08  .100000000000D+02
     .590406000000D+06  .400000000000D+01
 1 11  3 12 22  0  0.0 -.214927829802D-03 -.284217094304D-11  .000000000000D+00
     .410000000000D+02 -.786875000000D+02  .420624663563D-08 -.115265598642D+01
    -.407360494137D-05  .454817828722D-02  .796839594841D-05  .515358088684D+04
     .597600000000D+06  .115483999252D-06 -.158721323883D+01  .856816768646D-07
     .967852194426D+00  .229468750000D+03  .867861413089D+00 -.792175854447D-08
     .475019786481D-10  .100000000000D+01  .162600000000D+04  .000000000000D+00
     .240000000000D+01  .630000000000D+02 -.195577740669D-07  .410000000000D+02
     .590406000000D+06  .400000000000D+01
 3 11  3 12 22  0  0.0  .687547493726D-03  .511590769747D-11  .000000000000D+00
     .610000000000D+02 -.320000000000D+02  .516414367874D-08 -.291827251072D+01
    -.165589153767D-05  .140136943664D-01  .787526369095D-05  .515364538193D+04
     .597600000000D+06  .162050127983D-06 -.664537572680D+00 -.132247805595D-06
     .928505107965D+00  .209062500000D+03  .107618070034D+01 -.805354974839D-08
     .307512809143D-09  .100000000000D+01  .162600000000D+04  .000000000000D+00
     .240000000000D+01  .000000000000D+00 -.419095158577D-08  .610000000000D+02
     .590406000000D+06  .400000000000D+01
 4 11  3 12 22  0  0.0  .589219853282D-04  .103455022327D-10  .000000000000D+00
     .150000000000D+02  .156250000000D+01  .514378568789D-08  .126890216778D+00
     .217929482460D-06  .958414876368D-02  .790134072304D-05  .515360933685D+04
     .597600000000D+06  .372529029846D-08  .509357125706D+00  .135973095894D-06
     .938587182415D+00  .215656250000D+03  .713445868924D+00 -.841249327125D-08
    -.982183769039D-10  .100000000000D+01  .162600000000D+04  .000000000000D+00
     .240000000000D+01  .000000000000D+00 -.605359673500D-08  .150000000000D+02
     .590406000000D+06  .400000000000D+01
 6 11  3 12 22  0  0.0 -.174124725163D-04 -.130398802867D-09  .000000000000D+00
     .112000000000D+03 -.261875000000D+02  .510699844127D-08 -.837841112565D+00
    -.133924186230D-05  .656192691531D-02  .803545117378D-05  .515364713478D+04
     .597600000000D+06 -.119209289551D-06 -.591518069228D+00 -.186264514923D-07
     .935723218914D+00  .213906250000D+03 -.846000143165D+00 -.828498796015D-08
     .321799118511D-09  .100000000000D+01  .162600000000D+04  .000000000000D+00
     .240000000000D+01  .000000000000D+00 -.465661287308D-08  .112000000000D+03
     .590406000000D+06  .400000000000D+01
 7 11  3 12 22  0  0.0  .546919181943D-05  .909494701773D-12  .000000000000D+00
     .150000000000D+02 -.333437500000D+02  .432660879205D-08  .168904775045D+01
    -.161677598953D-05  .419901066925D-02  .459328293800D-05  .515367368126D+04
     .597600000000D+06  .670552253723D-07 -.262564921907D+01  .577419996262D-07
     .974225272690D+00  .298812500000D+03 -.310713304184D+01 -.813426739632D-08
    -.104290058385D-09  .100000000000D+01  .162600000000D+04  .000000000000D+00
     .240000000000D+01  .000000000000D+00 -.107102096081D-07  .150000000000D+02
     .590406000000D+06  .400000000000D+01
 8 11  3 12 22  0  0.0  .754324719310D-05  .113686837722D-12  .000000000000D+00
     .920000000000D+02 -.346875000000D+02  .377408577725D-08  .116042678196D+01
    -.166520476341D-05  .114412648836D-01  .513903796673D-05  .515361347580D+04
     .597600000000D+06  .502914190292D-07 -.255174817727D+01  .108033418655D-06
     .995831819318D+00  .295843750000D+03 -.308361869497D+01 -.788711424425D-08
    -.211437378644D-09  .100000000000D+01  .162600000000D+04  .000000000000D+00
     .240000000000D+01  .000000000000D+00 -.465661287308D-08  .920000000000D+02
     .590406000000D+06  .400000000000D+01
10 11  3 12 22  0  0.0 -.686366111040D-04 -.102318153949D-11  .000000000000D+00
     .290000000000D+02  .521562500000D+02  .475055502254D-08 -.908565304866D+00
     .286288559437D-05  .101077911677D-01  .782124698162D-05  .515358698463D+04
     .597600000000D+06  .203028321266D-06  .157750877426D+01  .137835741043D-06
     .949675623082D+00  .222062500000D+03  .702664507929D+00 -.818641242551D-08
    -.132148361653D-09  .100000000000D+01  .162600000000D+04  .000000000000D+00
     .240000000000D+01  .000000000000D+00 -.279396772385D-08  .290000000000D+02
     .590406000000D+06  .400000000000D+01
11 11  3 12 22  0  0.0 -.133960507810D-03 -.306954461848D-11  .000000000000D+00
     .730000000000D+02 -.431250000000D+01  .640990985562D-08  .180091684289D+01
    -.309199094772D-06  .116438771365D-01  .701844692230D-05  .515349596024D+04
     .597600000000D+06 -.277534127235D-06  .258578013418D+00 -.124797224998D-06
     .888405936782D+00  .206531250000D+03  .914635409870D+00 -.893822945599D-08
     .221437795202D-10  .100000000000D+01  .162600000000D+04  .000000000000D+00
     .240000000000D+01  .000000000000D+00 -.116415321827D-07  .730000000000D+02
     .590406000000D+06  .400000000000D+01
12 11  3 12 22  0  0.0 -.198385678232D-04  .284217094304D-11  .000000000000D+00
     .120000000000D+02 -.629062500000D+02  .408981321428D-08  .174736715523D+01
    -.330060720444D-05  .368286157027D-02  .848993659019D-05  .515379428291D+04
     .597600000000D+06 -.149011611938D-07 -.157095578487D+01  .577419996262D-07
     .973981374988D+00  .220562500000D+03 -.265048445955D+00 -.783604068826D-08
     .607168148133D-10  .100000000000D+01  .162600000000D+04  .000000000000D+00
     .240000000000D+01  .000000000000D+00 -.121071934700D-07  .120000000000D+02
     .590406000000D+06  .400000000000D+01
